COSMOS 2058             
1 20465U 90010A   26191.36315229  .00001563  00000+0  88984-4 0  9992
2 20465  82.4673 286.4986 0007815 270.6823  89.3512 15.12142220960778
SL-14 R/B               
1 20466U 90010B   26191.30072696  .00000255  00000+0  28011-4 0  9997
2 20466  82.5032 152.2384 0018208 254.6865 105.2338 14.83661278946669
SL-14 R/B               
1 20511U 90018B   26190.22147486  .00000282  00000+0  32342-4 0  9998
2 20511  82.5223 109.5139 0017412  55.2414 305.0437 14.82231639940584
HST                     
1 20580U 90037B   26191.48125162  .00004570  00000+0  14062-3 0  9993
2 20580  28.4733 281.3383 0001985  60.3837 299.6957 15.31028880792148
SL-16 R/B               
1 20625U 90046B   26190.00383485 -.00000050  00000+0 -14185-5 0  9993
2 20625  70.9983  43.1285 0012487 125.2782 234.9511 14.15022786865555
COSMOS 2084             
1 20663U 90055A   26191.23223861  .00001191  00000+0  94633-4 0  9992
2 20663  62.7903 277.4294 0007489 313.3457  46.7018 15.06213089954778
SL-6 R/B(2)             
1 20666U 90055D   26190.98688816  .00001143  00000+0  95242-4 0  9995
2 20666  62.7799 197.7866 0044299   8.2887 351.8933 15.04074554956587
SL-8 R/B                
1 20775U 90078B   26189.91119699  .00016326  00000+0  46255-3 0  9998
2 20775  82.9023 141.9992 0344547 324.9410  32.9553 14.93408823827367
SL-8 R/B                
1 21088U 91006B   26191.10840330  .00000054  00000+0  38417-4 0  9998
2 21088  82.9416  78.9815 0023666  54.0951 103.6954 13.77508472780924
OKEAN-3                 
1 21397U 91039A   26191.07092050  .00001429  00000+0  97533-4 0  9992
2 21397  82.5136 218.1885 0012020 274.0321  85.9532 15.05417870883443
COSMOS 2151             
1 21422U 91042A   26191.60039306  .00001001  00000+0  77200-4 0  9994
2 21422  82.4977 325.0847 0012421  11.0659 349.0835 15.00505767881624
SL-14 R/B               
1 21423U 91042B   26191.17799425  .00000212  00000+0  23740-4 0  9995
2 21423  82.4936 105.3367 0016534 193.5129 166.5645 14.81916373871215
ERS-1                   
1 21574U 91050A   26190.68519549  .00000154  00000+0  63975-4 0  9992
2 21574  98.7794 211.9326 0031553 198.2061 161.7999 14.39530485833281
ARIANE 40 R/B           
1 21610U 91050F   26191.07068023  .00000149  00000+0  57039-4 0  9991
2 21610  98.1864 238.5948 0004334  72.5548 287.6117 14.42970155836649
INTERCOSMOS 25          
1 21819U 91086A   26191.05795207  .00001040  00000+0  20442-3 0  9998
2 21819  82.6017 235.9699 1484316 213.0142 136.9149 12.12235411511518
SL-8 R/B                
1 21876U 92008B   26190.69063949  .00000127  00000+0  11467-3 0  9998
2 21876  82.9267 177.0557 0035358 151.6373  21.7909 13.75982559726199
SL-8 R/B                
1 21938U 92020B   26191.13344745  .00000023  00000+0  80802-5 0  9993
2 21938  82.9289  62.8117 0028187 318.2654 207.0612 13.75550292717960
USA 81                  
1 21949U 92023A   26190.55894800  .00000106  00000+0  31649-4 0  9991
2 21949  85.0056  61.0934 0002229  66.9776 293.1651 14.32403925112239
COSMOS 2219             
1 22219U 92076A   26190.26063133 -.00000086  00000+0 -20472-4 0  9996
2 22219  71.0616 123.9288 0017874   6.9103 353.2263 14.14110057735562
SL-16 R/B               
1 22220U 92076B   26191.25032900  .00000204  00000+0  12539-3 0  9990
2 22220  71.0007 290.1978 0014983 268.4021 118.8885 14.16875183739191
COSMOS 2221             
1 22236U 92080A   26191.47371794  .00001025  00000+0  87475-4 0  9997
2 22236  82.5042 161.4535 0015431 134.6920 225.5562 14.96595498799150
SL-16 R/B               
1 22285U 92093B   26191.21000503 -.00000097  00000+0 -25133-4 0  9997
2 22285  71.0224 107.0605 0002545 146.2385 213.8900 14.15467002730497
COSMOS 2228             
1 22286U 92094A   26191.60622276  .00001130  00000+0  94082-4 0  9995
2 22286  82.5190 119.6113 0016078 245.9653 113.9888 14.97666880794457
SL-16 R/B               
1 22566U 93016B   26191.33385405 -.00000065  00000+0 -87803-5 0  9993
2 22566  71.0084 317.5908 0009011 146.7754 213.3936 14.15311492719523
COSMOS 2242             
1 22626U 93024A   26191.64326572  .00001086  00000+0  92021-4 0  9992
2 22626  82.5196 149.1014 0014404 249.5342 110.4334 14.96976148798783
SL-16 R/B               
1 22803U 93059B   26190.93443622 -.00000204  00000+0 -77318-4 0  9999
2 22803  70.9907 113.3346 0016371  16.5636 343.6019 14.17250961696851
ARIANE 40 R/B           
1 22830U 93061H   26191.10896805  .00000091  00000+0  49113-4 0  9991
2 22830  98.4808 257.4887 0009446 282.7691  77.2438 14.32917286711635
COSMOS 2278             
1 23087U 94023A   26191.23180504 -.00000186  00000+0 -72577-4 0  9998
2 23087  71.0531 278.7111 0009883 213.1584 146.8921 14.14393857662132
SL-16 R/B               
1 23088U 94023B   26191.43535464 -.00000098  00000+0 -26038-4 0  9993
2 23088  70.9979 173.1077 0001497 145.7011 214.4208 14.15023929663451
SL-16 R/B               
1 23343U 94074B   26190.54390435  .00000256  00000+0  40868-4 0  9992
2 23343  97.6985 216.3325 0006709 171.5538 306.2325 14.79521229705268
